id,name,address,city,state,zip,phone,url
667401,140 Edward St,140 Edward St,Fort Atkinson,53538,(null),(null)
667397,1217 W 6th St,1217 W 6th St,The Dalles,97058,(null),(null)
667399,28 E Grand Ave,28 E Grand Ave,Fox Lake,60020,(null),(null)
667395,177 Lafayette Ave,177 Lafayette Ave,Suffern,10901,(null),(null)
667391,245 Bland St,245 Bland St,Bluefield,24701,(null),(null)
667393,67 Chanlon Rd,67 Chanlon Rd,New Providence,07974,(null),(null)
667389,257 Lackawanna Ave,257 Lackawanna Ave,Woodland Park,07424,(null),(null)
667385,2 N Atlantic Ave,2 N Atlantic Ave,Cocoa Beach,32931,(null),(null)
667387,188 E Main St,188 E Main St,Fredericksburg,78624,(null),(null)
667383,Taft St,(null) Taft St,Cedarburg city,53012,(null),(null)
667379,23287 Chagrin Blvd,23287 Chagrin Blvd,Beachwood,44122,(null),(null)
667381,Veteran's Brg,(null) Veteran's Brg,South Sioux City,68776,(null),(null)
667381,Dakota Ave,(null) Dakota Ave,South Sioux City,68776,(null),(null)
667381,US-20 Bus W,(null) US-20 Bus W,South Sioux City,68776,(null),(null)
667381,I-129 W,(null) I-129 W,South Sioux City,68776,(null),(null)
667381,I-129 E,(null) I-129 E,South Sioux City,68776,(null),(null)
667381,US-20 Bus E,(null) US-20 Bus E,South Sioux City,68776,(null),(null)
667377,2 Constitutional Way,2 Constitutional Way,Somersworth,03878,(null),(null)
667373,182 N Bardstown Rd,182 N Bardstown Rd,Mount Washington,40047,(null),(null)
667375,5384 Broadway St,5384 Broadway St,Lancaster,14086,(null),(null)
667371,1644 E Sample Rd,1644 E Sample Rd,Pompano Beach,33064,(null),(null)
667369,134 E Coma Ave,134 E Coma Ave,Hidalgo,78557,(null),(null)
667365,20 San Anselmo Ave,20 San Anselmo Ave,San Anselmo,94960,(null),(null)
667365,20 Marin St,20 Marin St,San Rafael,94901,(null),(null)
667367,701 New York Ave,701 New York Ave,Ogdensburg,13669,(null),(null)
667363,202 W Main St,202 W Main St,Little Chute,54140,(null),(null)
667359,596 Mount Hermon Rd,596 Mount Hermon Rd,Scotts Valley,95066,(null),(null)
667361,201 E 5th St,201 E 5th St,East Liverpool,43920,(null),(null)
667357,US-175 E,(null) US-175 E,Seagoville,75159,(null),(null)
667357,US-175 W,(null) US-175 W,Seagoville,75159,(null),(null)
667357,S US Hwy 175,(null) S US Hwy 175,Seagoville,75159,(null),(null)
667353,540 Leavenworth St,540 Leavenworth St,Excelsior Springs,64024,(null),(null)
667355,301 S 7th St,301 S 7th St,Arkadelphia,71923,(null),(null)
667351,249 Warburton Ave,249 Warburton Ave,Hawthorne,07506,(null),(null)
667349,7511 Long Lake Rd,7511 Long Lake Rd,Mounds View,55112,(null),(null)
667345,111 3rd Ave E,111 3rd Ave E,Hendersonville,28792,(null),(null)
667343,212 N Broadway,212 N Broadway,Portland,37148,(null),(null)
667341,219 E Main St,219 E Main St,Kilgore,75662,(null),(null)
667339,4338 Eastern Blvd,4338 Eastern Blvd,Canandaigua,14424,(null),(null)
667335,239 W Broad St,239 W Broad St,Falls Church,22046,(null),(null)
667337,202 2nd St N,202 2nd St N,Sauk Rapids,56379,(null),(null)
667333,201 Jefferson Ave,201 Jefferson Ave,West Plains,65775,(null),(null)
667329,Shiloh Rd,(null) Shiloh Rd,O Fallon,62269,(null),(null)
667331,2237 Wealthy St SE,2237 Wealthy St SE,East Grand Rapids,49506,(null),(null)
667327,2 W Park St,2 W Park St,Elizabethtown,17022,(null),(null)
667323,372 N Moore Rd,372 N Moore Rd,Port Washington,53074,(null),(null)
667325,501 E Main St,501 E Main St,Waupun,53963,(null),(null)
667321,1900 McLoughlin Blvd,1900 McLoughlin Blvd,Oregon City,97045,(null),(null)
667317,200 S Piedmont Ave,200 S Piedmont Ave,Kings Mountain,28086,(null),(null)
667315,301 Lynx St,301 Lynx St,Dunkirk,14048,(null),(null)
667305,299 Creek Rd,299 Creek Rd,Bellmawr,08031,(null),(null)
667313,12352 Highway 6,12352 Highway 6,Santa Fe,77510,(null),(null)
667311,7413 Lake St,7413 Lake St,River Forest,60305,(null),(null)
667309,3215 Leechburg Rd,3215 Leechburg Rd,Lower Burrell,15068,(null),(null)
667299,E Pike Rd,(null) E Pike Rd,Cambridge,43725,(null),(null)
667299,John Glenn Hwy,(null) John Glenn Hwy,Cambridge,43725,(null),(null)
667299,E Wheeling Ave,(null) E Wheeling Ave,Cambridge,43725,(null),(null)
667299,Wheeling Ave,(null) Wheeling Ave,Cambridge,43725,(null),(null)
667307,1142 17th Ave,1142 17th Ave,Monroe,53566,(null),(null)
667303,W Perkins Ave,(null) W Perkins Ave,McFarland,93250,(null),(null)
667301,251 Wildwood Ave,251 Wildwood Ave,Piedmont,94610,(null),(null)
667295,5075 Richmond Rd,5075 Richmond Rd,Bedford Heights,44146,(null),(null)
667289,102 E Main St,102 E Main St,Vermillion,57069,(null),(null)
667293,866 Ranch Road 620 S,866 Ranch Road 620 S,Lakeway,78734,(null),(null)
667287,101 E Virginia Ave,101 E Virginia Ave,Munhall,15120,(null),(null)
667297,124 S State St,124 S State St,Abbeville,70510,(null),(null)
667291,216 N English Ave,216 N English Ave,Marshall,65340,(null),(null)
667285,1 E Flaming Gorge Way,1 E Flaming Gorge Way,Green River,82935,(null),(null)
667281,5251 Peachtree Industrial Blvd,5251 Peachtree Industrial Blvd,Chamblee,30341,(null),(null)
667279,900 John Sims Pkwy E,900 John Sims Pkwy E,Niceville,32578,(null),(null)
667277,100 W Mondamin St,100 W Mondamin St,Minooka,60447,(null),(null)
667275,100 S 1st St,100 S 1st St,Fulton,13069,(null),(null)
667265,301 Liberty St,301 Liberty St,Morris,60450,(null),(null)
667267,4413 Lake Forest Dr,4413 Lake Forest Dr,Blue Ash,45242,(null),(null)
667271,34 W Main St,34 W Main St,Bloomsburg,17815,(null),(null)
667261,741 Haddon Ave,741 Haddon Ave,Collingswood,08108,(null),(null)
667269,294 S McKenzie St,294 S McKenzie St,Foley,36535,(null),(null)
667273,47 E Main St,47 E Main St,Middletown,19709,(null),(null)
667257,1653 New Mexico Ave,1653 New Mexico Ave,Las Vegas,87701,(null),(null)
667259,132 Chestnut St,132 Chestnut St,Roselle Park,07204,(null),(null)
667263,1263 W Main St,1263 W Main St,Sterling,80751,(null),(null)
667255,105 Flynn St,105 Flynn St,Lebanon,03766,(null),(null)
667253,Mayfield Rd,(null) Mayfield Rd,Lyndhurst,44124,(null),(null)
667247,114 S Solana Hills Dr,114 S Solana Hills Dr,Solana Beach,92075,(null),(null)
667237,117 S Main St,117 S Main St,Ottawa,66067,(null),(null)
667249,100 N Johnson St,100 N Johnson St,Hartford city,53027,(null),(null)
667251,2201 Huntington Dr,2201 Huntington Dr,San Marino,91108,(null),(null)
667245,668 W Bankhead Hwy,668 W Bankhead Hwy,Villa Rica,30180,(null),(null)
667241,3789 Sauk Trl,3789 Sauk Trl,Richton Park,60471,(null),(null)
667235,7148 Chippewa Rd,7148 Chippewa Rd,Brecksville,44141,(null),(null)
667239,1 Industry Ave,1 Industry Ave,Sylacauga,35150,(null),(null)
667233,341 N Alexander St,341 N Alexander St,Mount Dora,32757,(null),(null)
667219,50 Center St,50 Center St,Fernley,89408,(null),(null)
667221,E 2nd St,(null) E 2nd St,Franklin,45005,(null),(null)
667231,9265 N Government Way,9265 N Government Way,Hayden,83835,(null),(null)
667225,1706 N Illinois St,1706 N Illinois St,Swansea,62226,(null),(null)
667223,114 N Bridge St,114 N Bridge St,Chippewa Falls,54729,(null),(null)
667229,201 Brookside Dr,201 Brookside Dr,Lewisville,27023,(null),(null)
667213,700 Main St,700 Main St,Minden,71055,(null),(null)
667217,Wyoming Ave,(null) Wyoming Ave,Forty Fort,18704,(null),(null)
667217,S Wyoming Ave,(null) S Wyoming Ave,Edwardsville,18704,(null),(null)
667215,14 Shelton Beach Rd,14 Shelton Beach Rd,Saraland,36571,(null),(null)
667211,20571 Southgate Park Blvd,20571 Southgate Park Blvd,Maple Heights,44137,(null),(null)
667203,202 W Mechanic St,202 W Mechanic St,Reading,45215,(null),(null)
667209,200 N 9th St,200 N 9th St,Smithfield,27577,(null),(null)
667205,103 Broad St,103 Broad St,Claremont,03743,(null),(null)
667199,21 S Main St,21 S Main St,Clawson,48017,(null),(null)
667201,500 Broadway St,500 Broadway St,Alexandria,56308,(null),(null)
667207,300 E Jefferson St,300 E Jefferson St,Stoughton,53589,(null),(null)
667189,400 31st St,400 31st St,Vienna,26105,(null),(null)
667197,71 66th St,71 66th St,West New York,07093,(null),(null)
667193,208 N Main St,208 N Main St,Jennings,70546,(null),(null)
667191,8112 New LaGrange Rd,8112 New LaGrange Rd,Lyndon,40222,(null),(null)
667175,150 Palliet St,150 Palliet St,Festus,63028,(null),(null)
667179,135 4th St,135 4th St,Baraboo city,53913,(null),(null)
667181,21 Romeo Ave,21 Romeo Ave,Massena,13662,(null),(null)
667185,2600 Balls Ferry Rd,2600 Balls Ferry Rd,Anderson,96007,(null),(null)
667187,101 N 3rd St,101 N 3rd St,Bardstown,40004,(null),(null)
667183,30936 Railroad Canyon Rd,30936 Railroad Canyon Rd,Canyon Lake,92587,(null),(null)
667177,150 E Railroad Ave,150 E Railroad Ave,Fort Morgan,80701,(null),(null)
667169,290 Main St,290 Main St,Keansburg,07734,(null),(null)
667173,7600 Marshall Dr,7600 Marshall Dr,Superior,80027,(null),(null)
667171,2566 7th Ave E,2566 7th Ave E,North St. Paul,55109,(null),(null)
667159,200 N Plum St,200 N Plum St,Pontiac,61764,(null),(null)
667163,278 E Main St,278 E Main St,Niles city,49120,(null),(null)
667155,6031 Center St,6031 Center St,Clayton,94517,(null),(null)
667167,911 N Grant St,911 N Grant St,Roma,78584,(null),(null)
667153,101 S Elmwood Ave,101 S Elmwood Ave,Lindsay,93247,(null),(null)
667161,174 N Highway 45 W,174 N Highway 45 W,Union City,38261,(null),(null)
667145,325 Seneca St,325 Seneca St,Oil City,16301,(null),(null)
667151,100 E Main St,100 E Main St,Waunakee,53597,(null),(null)
667147,200 S Division St,200 S Division St,West Point,39773,(null),(null)
667133,121 W Clay St,121 W Clay St,Mebane,27302,(null),(null)
667141,100 Washington Ave,100 Washington Ave,Grand Haven,49417,(null),(null)
667135,1073 Erial Rd,1073 Erial Rd,Gloucester,08012,(null),(null)
667143,500 Main St,500 Main St,Shelbyville,40065,(null),(null)
667137,1 Lynden Pl,1 Lynden Pl,Totowa,07512,(null),(null)
667129,400 Steel St,400 Steel St,Aliquippa,15001,(null),(null)
667139,201 Wallington Ave,201 Wallington Ave,Wallington,07057,(null),(null)
667125,252 George Cobb Ln,252 George Cobb Ln,Lincoln Park,07035,(null),(null)
667123,665 Bessemer Rd,665 Bessemer Rd,Midfield,35228,(null),(null)
667127,8014 Parkway Dr,8014 Parkway Dr,Leeds,35094,(null),(null)
667119,1001 S Neosho Blvd,1001 S Neosho Blvd,Neosho,64850,(null),(null)
667107,618 9th St,618 9th St,Somers Point,08244,(null),(null)
667117,740 Anchor Ave,740 Anchor Ave,Orange Cove,93646,(null),(null)
667113,317 Oak St,317 Oak St,Sweetwater,79556,(null),(null)
667111,716 S Fortuna Blvd,716 S Fortuna Blvd,Fortuna,95540,(null),(null)
667109,100 E 5th St,100 E 5th St,Bonham,75418,(null),(null)
667121,23 E Baltimore Ave,23 E Baltimore Ave,Lansdowne,19050,(null),(null)
667115,326 Manassas Dr,326 Manassas Dr,Manassas Park,20111,(null),(null)
667105,400 Bay Area Blvd,400 Bay Area Blvd,Webster,77058,(null),(null)
667101,27889 Chardon Rd,27889 Chardon Rd,Willoughby Hills,44092,(null),(null)
667093,1020 Commerce St,1020 Commerce St,Perry,31069,(null),(null)
667091,6309 Ventnor Ave,6309 Ventnor Ave,Ventnor City,08406,(null),(null)
667097,Wagner Ave,(null) Wagner Ave,Greenville,45331,(null),(null)
667095,425 E Main Ave,425 E Main Ave,Robstown,78380,(null),(null)
667087,205 N Pacific Ave,205 N Pacific Ave,Kelso,98626,(null),(null)
667089,Indianapolis Blvd,(null) Indianapolis Blvd,Schererville,46373,(null),(null)
667089,Indianapolis Blvd,(null) Indianapolis Blvd,Saint John,46373,(null),(null)
667083,411 S Century Blvd,411 S Century Blvd,Rantoul,61866,(null),(null)
667085,536 Plaza Dr,536 Plaza Dr,Fostoria,44830,(null),(null)
667099,Mcknight, PA,(null) (null),Mcknight,(null),(null),(null)
667103,35119 Cricklewood Blvd,35119 Cricklewood Blvd,New Baltimore,48047,(null),(null)
667081,29171 Heathercliff Rd,29171 Heathercliff Rd,Malibu,90265,(null),(null)
667069,583 Rd,(null) 583 Rd,Miami,74354,(null),(null)
667073,101 W 9th St,101 W 9th St,Auburn,46706,(null),(null)
667077,105 Goldman St,105 Goldman St,Clemson,29631,(null),(null)
667063,22455 Barton Rd,22455 Barton Rd,Grand Terrace,92313,(null),(null)
667075,27 E Main St,27 E Main St,Patchogue,11772,(null),(null)
667057,105 N Minnesota St,105 N Minnesota St,New Ulm,56073,(null),(null)
667061,Warren Ave,(null) Warren Ave,Warrenville,60555,(null),(null)
667059,1300 Ludington St,1300 Ludington St,Escanaba,49829,(null),(null)
667071,915 Ringwood Ave,915 Ringwood Ave,Wanaque,07420,(null),(null)
667053,985 Florida Blvd,985 Florida Blvd,Miami,33144,(null),(null)
667055,1 Manor St,1 Manor St,Marion,72364,(null),(null)
667049,56 E Main St,56 E Main St,Ephrata,17522,(null),(null)
667039,300 Galen Dr N,300 Galen Dr N,Avon,46123,(null),(null)
667041,2 Station Pl,2 Station Pl,Metuchen,08840,(null),(null)
667051,100 N Chrisman Ave,100 N Chrisman Ave,Cleveland,38732,(null),(null)
667045,200 N Washington St,200 N Washington St,Havre de Grace,21078,(null),(null)
667035,200 S Main St,200 S Main St,Taylorville,62568,(null),(null)
667037,13460 E Highway 50,13460 E Highway 50,Clermont,34711,(null),(null)
667033,38900 N Sheridan Rd,38900 N Sheridan Rd,Beach Park,60099,(null),(null)
667021,12400 Gunn Rd,12400 Gunn Rd,Live Oak,78233,(null),(null)
667025,14310 Forest Blvd N,14310 Forest Blvd N,Hugo,55038,(null),(null)
667023,401 Highway 47 E,401 Highway 47 E,Troy,63379,(null),(null)
667029,1600 W Grand Ave,1600 W Grand Ave,Grover Beach,93433,(null),(null)
667019,589 11th St NE,589 11th St NE,East Wenatchee,98802,(null),(null)
667017,200 Atlantic Blvd,200 Atlantic Blvd,Neptune Beach,32266,(null),(null)
667009,5A Florida Ave,5A Florida Ave,Holly Hill,32117,(null),(null)
667013,5435 Gall Blvd,5435 Gall Blvd,Zephyrhills,33542,(null),(null)
667015,701 Main St,701 Main St,Woodward,73801,(null),(null)
667011,S State Road 19,(null) S State Road 19,Peru,46970,(null),(null)
667011,State Road 19,(null) State Road 19,Peru,46970,(null),(null)
666999,101 E Mulberry St,101 E Mulberry St,Chatham,62629,(null),(null)
667007,201 N Main St,201 N Main St,Kewanee,61443,(null),(null)
666997,101 Flower St,101 Flower St,Emmaus,18049,(null),(null)
667001,100 Roe St,100 Roe St,Azle,76020,(null),(null)
666995,1501 Porter St,1501 Porter St,Enumclaw,98022,(null),(null)
667005,100 Peachview Blvd,100 Peachview Blvd,Gaffney,29341,(null),(null)
666989,14431 NE 23rd St,14431 NE 23rd St,Choctaw,73020,(null),(null)
666991,535 N Main St,535 N Main St,Lansing,66043,(null),(null)
666993,4 Vine St,4 Vine St,Coshocton,43812,(null),(null)
666979,221 N Main St,221 N Main St,Kennett,63857,(null),(null)
666985,100 SW Main St,100 SW Main St,Vidalia,30474,(null),(null)
666983,564 N Main St,564 N Main St,Guymon,73942,(null),(null)
666977,5628 3rd Ave,5628 3rd Ave,Ferndale,98248,(null),(null)
666987,49 Woodland Ave,49 Woodland Ave,Westwood,07675,(null),(null)
666973,Baltimore Ave,(null) Baltimore Ave,Yeadon,19050,(null),(null)
666969,270 W Main St,270 W Main St,Ravenna,44266,(null),(null)
666975,7101 SW 58th Ave,7101 SW 58th Ave,South Miami,33143,(null),(null)
666971,66 Des Peres Rd,66 Des Peres Rd,Des Peres,63131,(null),(null)
666971,66 Des Peres Dr,66 Des Peres Dr,Des Peres,63131,(null),(null)
666967,1001 Glenwood Shopping Plz,1001 Glenwood Shopping Plz,Oneida,13421,(null),(null)
666947,8400 Highway 31,8400 Highway 31,Calera,35040,(null),(null)
666957,8501 Old Sappington Rd,8501 Old Sappington Rd,Crestwood,63126,(null),(null)
666943,Liberty Ave,(null) Liberty Ave,Vermilion,44089,(null),(null)
666943,W Lake Rd,(null) W Lake Rd,Huron,44839,(null),(null)
666951,6571 Jimmy Carter Blvd,6571 Jimmy Carter Blvd,Norcross,30071,(null),(null)
666963,101 E Washington St,101 E Washington St,Greensburg,47240,(null),(null)
666961,201 E Main St,201 E Main St,Washington,47501,(null),(null)
666945,823 Peterson Ave N,823 Peterson Ave N,Douglas,31533,(null),(null)
666953,525 Union St,525 Union St,Carlstadt,07072,(null),(null)
666959,5001 Youngstown Poland Rd,5001 Youngstown Poland Rd,Youngstown,44514,(null),(null)
666949,1787 E Cottonwood St,1787 E Cottonwood St,Cottonwood,86326,(null),(null)
666941,50 Trotters Way,50 Trotters Way,Freehold township,07728,(null),(null)
666939,232 Dixie Dr,232 Dixie Dr,Clute,77531,(null),(null)
666929,809 E US Highway 36,809 E US Highway 36,Urbana,43078,(null),(null)
666937,331 E 5th St,331 E 5th St,Yazoo City,39194,(null),(null)
666923,1701 Riverside Ave,1701 Riverside Ave,Marinette,54143,(null),(null)
666933,311 N Virginia St,311 N Virginia St,Port Lavaca,77979,(null),(null)
666931,851 N Locust Ave,851 N Locust Ave,Lawrenceburg,38464,(null),(null)
666925,1 Warwick Rd,1 Warwick Rd,Haddonfield,08033,(null),(null)
666921,40 E North Ave,40 E North Ave,Northlake,60164,(null),(null)
666917,2028 Baseline St,2028 Baseline St,Cornelius,97113,(null),(null)
666911,600 Saint Johns Ave,600 Saint Johns Ave,Palatka,32177,(null),(null)
666919,25 S 3rd Ave,25 S 3rd Ave,Manville,08835,(null),(null)
666909,101 S Shuman St,101 S Shuman St,Verona,53593,(null),(null)
666913,3129 Greenwich Rd,3129 Greenwich Rd,Norton,44203,(null),(null)
666905,1102 John Sims Pkwy E,1102 John Sims Pkwy E,Niceville,32578,(null),(null)
666915,100 Court Ave,100 Court Ave,Indianola,38751,(null),(null)
666907,5790 Kessler Ln,5790 Kessler Ln,Merriam,66203,(null),(null)
666899,Oneonta, NY,(null) (null),Oneonta,(null),(null),http://en.wikipedia.org/wiki/Oneonta,_New_York
666901,2541 Church St,2541 Church St,Hernando,38632,(null),(null)
666903,101 E Crandall Ave,101 E Crandall Ave,Harrison,72601,(null),(null)
666895,State Route 14,(null) State Route 14,Phelps,14456,(null),(null)
666895,State Route 14A,(null) State Route 14A,Seneca,14456,(null),(null)
666895,St Rt 14a,(null) St Rt 14a,Seneca,14456,(null),(null)
666895,W Lake Rd,(null) W Lake Rd,Geneva town,14456,(null),(null)
666895,St Rt 14,(null) St Rt 14,Geneva town,14456,(null),(null)
666895,State Hwy 14A,(null) State Hwy 14A,Seneca,14456,(null),(null)
666895,State Hwy 14,(null) State Hwy 14,Phelps,14456,(null),(null)
666893,856 W Deuce of Clubs,856 W Deuce of Clubs,Show Low,85901,(null),(null)
666889,2143 49th St S,2143 49th St S,Gulfport,33707,(null),(null)
666885,136 Short Rd,136 Short Rd,Pinehurst,28374,(null),(null)
666891,11701 Enterprise Dr,11701 Enterprise Dr,Auburn,95603,(null),(null)
666887,1801 E Capitol Dr,1801 E Capitol Dr,Shorewood,53211,(null),(null)
666897,201 N Prairieville St,201 N Prairieville St,Athens,75751,(null),(null)
666883,906 Park Ave,906 Park Ave,Meadville,16335,(null),(null)
666879,3700 Fairview Ave,3700 Fairview Ave,Lake Station,46405,(null),(null)
666877,W Patterson St,(null) W Patterson St,Hope Mills,28348,(null),(null)
666873,712 E Blithedale Ave,712 E Blithedale Ave,Mill Valley,94941,(null),(null)
666871,905 S Crowley Rd,905 S Crowley Rd,Crowley,76036,(null),(null)
666865,449 E Manning Ave,449 E Manning Ave,Parlier,93648,(null),(null)
666875,233 E Main St,233 E Main St,Somerton,85350,(null),(null)
666861,200 N Washington St,200 N Washington St,Forrest City,72335,(null),(null)
666869,110 Calvin St,110 Calvin St,McMinnville,37110,(null),(null)
666855,19 James St,19 James St,Florham Park,07932,(null),(null)
666863,559 Chestnut St,559 Chestnut St,Winnetka,60093,(null),(null)
666857,101 N Jackson St,101 N Jackson St,Brookhaven,39601,(null),(null)
666859,100 N 3rd E,100 N 3rd E,Mountain Home,83647,(null),(null)
666859,100 S 3rd E,100 S 3rd E,Mountain Home,83647,(null),(null)
666853,200 Romain Ave,200 Romain Ave,Pompton Lakes,07442,(null),(null)
666849,57 W Wilson Bridge Rd,57 W Wilson Bridge Rd,Worthington,43085,(null),(null)
666841,8612 W 95th St,8612 W 95th St,Palos Hills,60457,(null),(null)
666845,1 N 300 W,1 N 300 W,Hurricane,84737,(null),(null)
666847,2216 US Highway 1 S,2216 US Highway 1 S,Saint Augustine,32086,(null),(null)
666851,1027 E 31st St,1027 E 31st St,La Grange Park,60526,(null),(null)
666839,1800 Ronald Reagan Hwy,1800 Ronald Reagan Hwy,Covington,70435,(null),(null)
666835,100 7th Ave,100 7th Ave,South Charleston,25303,(null),(null)
666837,330 W Main St,330 W Main St,Kuna,83634,(null),(null)
666833,2813 Ray Weiland Dr,2813 Ray Weiland Dr,Baker,70714,(null),(null)
666829,10515 S Ridgeland Ave,10515 S Ridgeland Ave,Chicago Ridge,60415,(null),(null)
666825,116 N College Ave,116 N College Ave,Newton,28658,(null),(null)
666817,271 S Broad St,271 S Broad St,Monroe,30655,(null),(null)
666807,100 S 2nd St,100 S 2nd St,Eunice,70535,(null),(null)
666827,4001 NE 174th St,4001 NE 174th St,Lake Forest Park,98155,(null),(null)
666821,11515 Rockfield Ct,11515 Rockfield Ct,Sharonville,45241,(null),(null)
666811,7617 Fontainebleau Dr,7617 Fontainebleau Dr,New Carrollton,20784,(null),(null)
666823,1 San Mateo Rd,1 San Mateo Rd,Half Moon Bay,94019,(null),(null)
666813,42 Franklin Ter,42 Franklin Ter,Princeton,08542,(null),(null)
666803,356 9th St,356 9th St,Gloucester City,08030,(null),(null)
666805,55 E Sierra Madre Blvd,55 E Sierra Madre Blvd,Sierra Madre,91024,(null),(null)
666799,200 Jefferson St SW,200 Jefferson St SW,Camden,71701,(null),(null)
666791,1839 E Nasa Pkwy,1839 E Nasa Pkwy,Seabrook,77586,(null),(null)
666787,100 W Church St,100 W Church St,Webb City,64870,(null),(null)
666795,157 S Alton Blvd,157 S Alton Blvd,Alton,78573,(null),(null)
666801,20 Washington St,20 Washington St,Toms River,08753,(null),(null)
666797,200 Alameda de Las Pulgas,200 Alameda de Las Pulgas,San Mateo,94402,(null),(null)
666793,258 S Main St,258 S Main St,Camp Verde,86322,(null),(null)
666783,160 Highway 965 NE,160 Highway 965 NE,North Liberty,52317,(null),(null)
666785,100 N Poplar St,100 N Poplar St,Lincolnton,28092,(null),(null)
666781,800 W State St,800 W State St,Trenton,45067,(null),(null)
666777,809 Puget Ave,809 Puget Ave,Sedro Woolley,98284,(null),(null)
666779,3910 Dayton Blvd,3910 Dayton Blvd,Red Bank,37415,(null),(null)
666775,2036 Lexington Ave S,2036 Lexington Ave S,Mendota Heights,55120,(null),(null)
666773,3236 Lakeview Dr,3236 Lakeview Dr,Suamico,54173,(null),(null)
666765,610 8th St,610 8th St,Fort Madison,52627,(null),(null)
666771,1208 West Ave,1208 West Ave,Crossville,38555,(null),(null)
666767,4825 Lawrenceville Hwy NW,4825 Lawrenceville Hwy NW,Lilburn,30047,(null),(null)
666763,701 Front St,701 Front St,Morgan City,70380,(null),(null)
666761,1001 Friend St,1001 Friend St,Newberry,29108,(null),(null)
666755,450 W Main St,450 W Main St,Wyckoff,07481,(null),(null)
666753,US Highway 283,(null) US Highway 283,Vernon,76384,(null),(null)
666759,204 Centre St,204 Centre St,Fernandina Beach,32034,(null),(null)
666757,120 W Chicago Rd,120 W Chicago Rd,Sturgis,49091,(null),(null)
666747,2 N 10th Ave,2 N 10th Ave,Coatesville,19320,(null),(null)
666749,440 S Pine St,440 S Pine St,Burlington city,53105,(null),(null)
666751,36 E Broadway Ave,36 E Broadway Ave,Muskegon Heights,49444,(null),(null)
666745,Lake Grove, NY,(null) (null),Lake Grove,(null),(null),(null)
666743,200 Franciscan Way,200 Franciscan Way,King City,93930,(null),(null)
666741,14875 E Jefferson Ave,14875 E Jefferson Ave,Detroit,48215,(null),(null)
666737,115 E Lake St,115 E Lake St,South Lyon,48178,(null),(null)
666731,413 S Leroy St,413 S Leroy St,Fenton city,48430,(null),(null)
666739,107 N Main St,107 N Main St,Henderson,75652,(null),(null)
666733,260 S Minnesota Ave,260 S Minnesota Ave,Saint Peter,56082,(null),(null)
666725,31 E Ferguson Ave,31 E Ferguson Ave,Wood River,62095,(null),(null)
666721,9905 W 133rd Ave,9905 W 133rd Ave,Cedar Lake,46303,(null),(null)
666735,11313 Los Alamitos Blvd,11313 Los Alamitos Blvd,Los Alamitos,90720,(null),(null)
666727,48 W Main St,48 W Main St,Uniontown,15401,(null),(null)
666723,1300 Omarest Dr,1300 Omarest Dr,Columbia,29210,(null),(null)
666729,1101 Vine St,1101 Vine St,Healdsburg,95448,(null),(null)
666719,53 Ward St,53 Ward St,Larkspur,94939,(null),(null)
666717,301 Grand Ave,301 Grand Ave,Spencer,51301,(null),(null)
666709,137 W 3rd St,137 W 3rd St,Dover,44622,(null),(null)
666711,3480 W Chinden Blvd,3480 W Chinden Blvd,Garden City,83714,(null),(null)
666713,1449 SW 30th St,1449 SW 30th St,Ontario,97914,(null),(null)
666715,517 9th St,517 9th St,Marysville,95901,(null),(null)
666707,119 Bridge St,119 Bridge St,Catasauqua,18032,(null),(null)
666705,12329 S Harlem Ave,12329 S Harlem Ave,Palos Heights,60463,(null),(null)
666703,373 Main St,373 Main St,Livingston,95334,(null),(null)
666701,305 S England St,305 S England St,Williamsburg,23185,(null),(null)
666695,3729 Tampa Rd,3729 Tampa Rd,Oldsmar,34677,(null),(null)
666687,30800 S Wixom Rd,30800 S Wixom Rd,Wixom,48393,(null),(null)
666689,401 N Gulf Blvd,401 N Gulf Blvd,Freeport,77541,(null),(null)
666691,101 S 2nd St,101 S 2nd St,Hammonton,08037,(null),(null)
666693,1423989 Stone Ridge Dr,1423989 Stone Ridge Dr,Pewaukee city,53188,(null),(null)
666685,719 County Road F E,719 County Road F E,Vadnais Heights,55127,(null),(null)
666677,10145 Dallas Hollow Rd,10145 Dallas Hollow Rd,Soddy Daisy,37379,(null),(null)
666673,13956 Cedar Rd,13956 Cedar Rd,University Heights,44118,(null),(null)
666675,5300 Sternberg Ave,5300 Sternberg Ave,Weston,54476,(null),(null)
666683,5836 E Washington Blvd,5836 E Washington Blvd,Commerce,90040,(null),(null)
666671,1501 I St,1501 I St,Bedford,47421,(null),(null)
666669,201 W Center St,201 W Center St,Canton,39046,(null),(null)
666665,1700 James Dr,1700 James Dr,North Mankato,56003,(null),(null)
666667,201 S 3rd St,201 S 3rd St,Richmond,77469,(null),(null)
666663,206 S Ronald Reagan Blvd,206 S Ronald Reagan Blvd,Longwood,32750,(null),(null)
666659,1234 E St,1234 E St,Washougal,98671,(null),(null)
666651,800 91st St,800 91st St,North Bergen,07047,(null),(null)
666661,100 S Royal Poinciana Blvd,100 S Royal Poinciana Blvd,Miami Springs,33166,(null),(null)
666649,411 W Bluewater Hwy,411 W Bluewater Hwy,Easton,48846,(null),(null)
666647,401 Beltrami Ave NW,401 Beltrami Ave NW,Bemidji,56601,(null),(null)
666645,151 N Main St,151 N Main St,El Dorado,67042,(null),(null)
666639,263 N Hewitt Dr,263 N Hewitt Dr,Hewitt,76643,(null),(null)
666643,1086 Highway 138 SE,1086 Highway 138 SE,Conyers,30013,(null),(null)
666635,5096 N Kimbark Pl,5096 N Kimbark Pl,Whitefish Bay,53217,(null),(null)
666637,1401 Main St,1401 Main St,Speedway,46224,(null),(null)
666631,1801 Via Olivera,1801 Via Olivera,Palos Verdes Estates,90274,(null),(null)
666633,24 N South St,24 N South St,Wilmington,45177,(null),(null)
666641,801 N Cardinal Dr,801 N Cardinal Dr,Mountain Home,72653,(null),(null)
666625,301 Austin St,301 Austin St,Bogalusa,70427,(null),(null)
666623,411 Park Ave,411 Park Ave,Hutto,78634,(null),(null)
666629,2904 Highway 365,2904 Highway 365,Nederland,77627,(null),(null)
666627,1701 Main St,1701 Main St,Lake Stevens,98258,(null),(null)
666619,4135 Richmond Rd,4135 Richmond Rd,Warrensville Heights,44122,(null),(null)
666621,1 W Main St,1 W Main St,Glen Carbon,62034,(null),(null)
666617,701 Keeler St,701 Keeler St,Boone,50036,(null),(null)
666613,2729 N Dixie Hwy,2729 N Dixie Hwy,Wilton Manors,33334,(null),(null)
666615,117 E Center St,117 E Center St,Warsaw,46580,(null),(null)
666611,101 W Lincoln Ave,101 W Lincoln Ave,Fergus Falls,56537,(null),(null)
666609,251 S 1st St,251 S 1st St,Artesia,88210,(null),(null)
666599,432 N Leavitt Rd,432 N Leavitt Rd,Amherst,44001,(null),(null)
666603,2701 Village Park Dr,2701 Village Park Dr,Plover,54467,(null),(null)
666605,C Olde Main Plz,(null) C Olde Main Plz,Saint Albans,25177,(null),(null)
666601,365 S Rochester Rd,365 S Rochester Rd,Rochester Hills,48307,(null),(null)
666597,122 N Ellington Pkwy,122 N Ellington Pkwy,Lewisburg,37091,(null),(null)
666595,10228 Federal Blvd,10228 Federal Blvd,Federal Heights,80260,(null),(null)
666593,101 E Main St,101 E Main St,Campbellsville,42718,(null),(null)
666589,15 N Ash St,15 N Ash St,Blackfoot,83221,(null),(null)
666591,551 Loveland Madeira Rd,551 Loveland Madeira Rd,Loveland,45140,(null),(null)
666585,101 W 1st St,101 W 1st St,Maryville,64468,(null),(null)
666587,120 W Tehachapi Blvd,120 W Tehachapi Blvd,Tehachapi,93561,(null),(null)
666581,26 S Route 9W,26 S Route 9W,West Haverstraw,10993,(null),(null)
666577,506 Tarrytown Rd,506 Tarrytown Rd,Greenburgh,10607,(null),(null)
666575,701 Port Republic St,701 Port Republic St,Beaufort,29902,(null),(null)
666579,515 Poplar St,515 Poplar St,Cambridge,21613,(null),(null)
666569,300 Dakota Ave S,300 Dakota Ave S,Huron,57350,(null),(null)
666573,242 Wanaque Ave,242 Wanaque Ave,Pompton Lakes,07442,(null),(null)
666565,301 10th St,301 10th St,Worthington,56187,(null),(null)
666571,Satellite Beach, FL,(null) (null),Satellite Beach,(null),(null),(null)
666559,927 Main St,927 Main St,Evanston,82930,(null),(null)
666561,200 Indiana Ave,200 Indiana Ave,Plymouth,46563,(null),(null)
666567,3528 County Road 39 NE,3528 County Road 39 NE,Monticello township,55362,(null),(null)
666563,1545 Buford Hwy,1545 Buford Hwy,Buford,30518,(null),(null)
666557,1647 S Division St,1647 S Division St,Guthrie,73044,(null),(null)
666553,5401 W Cal Sag Rd,5401 W Cal Sag Rd,Alsip,60803,(null),(null)
666555,500 W State St,500 W State St,Salem,44460,(null),(null)
666549,585 N Main St,585 N Main St,Vidor,77662,(null),(null)
666551,239 W Canal St,239 W Canal St,Picayune,39466,(null),(null)
666547,147 N Jefferson St,147 N Jefferson St,Martinsville,46151,(null),(null)
666543,2101 Monroe St,2101 Monroe St,Two Rivers,54241,(null),(null)
666545,1624 Paris Ave,1624 Paris Ave,Port Royal,29935,(null),(null)
666541,31 W Main St,31 W Main St,Fredonia,14063,(null),(null)
666537,385 Sierra St,385 Sierra St,Kingsburg,93631,(null),(null)
666535,9112 Industrial Dr,9112 Industrial Dr,Bastrop,71220,(null),(null)
666539,6717 N Lincoln Ave,6717 N Lincoln Ave,Lincolnwood,60712,(null),(null)
666529,4855 Yellowstone Ave,4855 Yellowstone Ave,Chubbuck,83202,(null),(null)
666531,301 A Ave W,301 A Ave W,Oskaloosa,52577,(null),(null)
666525,601 S Washington St,601 S Washington St,Mexico,65265,(null),(null)
666527,2 Park St,2 Park St,Poquoson,23662,(null),(null)
666519,1 W Main St,1 W Main St,Plano,60545,(null),(null)
666517,650 E Center St,650 E Center St,Chino Valley,86323,(null),(null)
666513,22673 Allen Rd,22673 Allen Rd,Woodhaven,48183,(null),(null)
666521,112 W Ovilla Rd,112 W Ovilla Rd,Glenn Heights,75154,(null),(null)
666515,2832 Viking Blvd NE,2832 Viking Blvd NE,East Bethel,55092,(null),(null)
666523,118 Monmouth St,118 Monmouth St,Red Bank,07701,(null),(null)
666507,2976 S 25th E,2976 S 25th E,Idaho Falls,83404,(null),(null)
666511,600 Voorhees Ave,600 Voorhees Ave,Middlesex,08846,(null),(null)
666503,401 S J St,401 S J St,Imperial,92251,(null),(null)
666501,101 1st Ave E,101 1st Ave E,Williston,58801,(null),(null)
666497,16127 SE Sunnyside Rd,16127 SE Sunnyside Rd,Happy Valley,97015,(null),(null)
666493,2200 Baxter St,2200 Baxter St,Cayce,29033,(null),(null)
666495,201 S 1st St,201 S 1st St,Zionsville,46077,(null),(null)
666485,201 Beach Ave E,201 Beach Ave E,Brigantine,08203,(null),(null)
666489,365 W Main St,365 W Main St,Marshall,56258,(null),(null)
666487,3912 147th St,3912 147th St,Midlothian,60445,(null),(null)
666499,1573 Columbus Ave,1573 Columbus Ave,Washington Court House,43160,(null),(null)
666483,1401 GA Highway 40 E,1401 GA Highway 40 E,Kingsland,31548,(null),(null)
666479,186 S Main St,186 S Main St,Lockhart,78644,(null),(null)
666477,119 W Massachusetts Ave,119 W Massachusetts Ave,Southern Pines,28387,(null),(null)
666477,119 S Massachusetts Ave,119 S Massachusetts Ave,Southern Pines,28387,(null),(null)
667031,Stephenson Grand Army of the Republic Memorial,(null) (null),Washington,20004,(null),(null)
667031,Grand Army of the Republic Memorial,630 Indiana Ave NW,Washington,20004,(null),(null)
667031,The Grand Army of the Republic Cemetery Park,(null) E Howe St,Seattle,98102,(null),http://www.fgar.org
667031,Republic,1942 Grand River Ave,Detroit,48226,+13134468360,http://www.republictaverndetroit.com
666475,351 Ridge Blvd,351 Ridge Blvd,South Daytona,32119,(null),(null)
666467,887 5th Ave,887 5th Ave,New Kensington,15068,(null),(null)
666469,192 Island Rd,192 Island Rd,Mahwah,07430,(null),(null)
666473,200 S Main St,200 S Main St,Borger,79007,(null),(null)
666471,1272 Main St,1272 Main St,Gardendale,35071,(null),(null)
666461,1723 N Portland St,1723 N Portland St,La Grande,97850,(null),(null)
666465,101 N Washington St,101 N Washington St,Beeville,78102,(null),(null)
666463,Walnut St,(null) Walnut St,Circleville,43113,(null),(null)
666457,1038 E Broad St,1038 E Broad St,Pataskala,43062,(null),(null)
666459,101 West Ave S,101 West Ave S,McComb,39648,(null),(null)
