id,name,address,city,state,zip,phone,url
667401,ADT Security Services, Inc.,4801 Voges Rd,McFarland,53718,+18008848681,http://www.adt.com
667401,ADT Security Services, Inc.,200 N Patrick Blvd,Brookfield city,53045,+18008848681,http://www.adt.com
667401,ADT Security Services, Inc.,5943 E Riverside Blvd,Rockford,61114,+18008848681,http://www.adt.com
667401,ADT Security Services, Inc.,111 Windsor Dr,Oak Brook,60523,+18008848681,http://www.adt.com
667401,ADT Security Services, Inc.,1801 Howard St,Elk Grove Village,60007,+18008848681,http://www.adt.com
667401,ADT Security Services, Inc.,2250 W Pinehurst Blvd,Addison,60101,+18008848681,http://www.adt.com
667401,ADT Security Services,313 Madison Ave,Fort Atkinson,53538,+12026002468,(null)
667401,ADT Security Services,656 S Janesville St,Whitewater,53190,+12026002468,(null)
667401,ADT Security Services,419 Vincent St,Milton,53563,+12026002468,(null)
667401,ADT Security Services,3333 N County Road E,Janesville,53548,+12026002468,(null)
667397,The Dalles, OR,(null) (null),The Dalles,(null),(null),http://en.wikipedia.org/wiki/The_Dalles,_Oregon
667399,ADT Security Services, Inc.,1801 Howard St,Elk Grove Village,60007,+18008848681,http://www.adt.com
667399,ADT Security Services, Inc.,2250 W Pinehurst Blvd,Addison,60101,+18008848681,http://www.adt.com
667399,ADT Security Services, Inc.,111 Windsor Dr,Oak Brook,60523,+18008848681,http://www.adt.com
667399,ADT Security Services, Inc.,200 N Patrick Blvd,Brookfield city,53045,+18008848681,http://www.adt.com
667399,ADT Security Services, Inc.,5943 E Riverside Blvd,Rockford,61114,+18008848681,http://www.adt.com
667399,ADT Security Services, Inc.,13528 Kenton Ave,Crestwood,60445,+18008848681,http://www.adt.com
667399,ADT Security Services, Inc.,4801 Voges Rd,McFarland,53718,+18008848681,http://www.adt.com
667399,ADT Security Services,1010 N Cedar Lake Rd,Round Lake Beach,60073,+12026002468,(null)
667399,ADT Security Services,3912 W John St,McHenry,60050,+12026002468,(null)
667399,ADT Security Services,3200 E Sand Lake Rd,Lindenhurst,60046,+12026002468,(null)
667385,ADT Security Services,165 Minutemen Cswy,Cocoa Beach,32931,+12026002468,(null)
667387,ADT Security Services,501 S Washington St,Fredericksburg,78624,+12026002468,(null)
667387,ADT Security Services,816 Ranchero Rd,Kerrville,78028,+12026002468,(null)
667383,ADT Security Services,1706 Wisconsin Ave,Grafton,53024,+12026002468,(null)
667383,ADT Security Services,1299 Washington Ave,Cedarburg,53012,+12026002468,(null)
667379,ADT Security Services, Inc.,9800 Rockside Rd,Valley View,44125,+18008848681,http://www.adt.com
667379,ADT Security Services, Inc.,9100 Market Pl,Broadview Heights,44147,+18008848681,http://www.adt.com
667379,ADT Security Services,25705 Chagrin Blvd,Beachwood,44122,+12026002468,(null)
667379,ADT Security Services,24393 Cedar Rd,Lyndhurst,44124,+12026002468,(null)
667379,ADT Security Services,20121 Van Aken Blvd,Shaker Heights,44122,+12026002468,(null)
667379,ADT Security Services,25500 Miles Rd,Warrensville Heights,44128,+12026002468,(null)
667379,ADT Security Services,6411 Mayfield Rd,Mayfield Heights,44124,+12026002468,(null)
667379,ADT Security Services,760 Richmond Rd,Richmond Heights,44143,+12026002468,(null)
667379,ADT Security Services,26050 Richmond Rd,Bedford Heights,44146,+12026002468,(null)
667379,ADT Security Services,5354 Lee Rd,Maple Heights,44137,+12026002468,(null)
667381,ADT Security Services,1723 Dakota Ave,South Sioux City,68776,+12026002468,(null)
667381,ADT Security Services,700 Jennings St,Sioux City,51105,+17122022201,(null)
667373,ADT Security Services, Inc.,5111 Commerce Crossings Dr,Louisville,40229,+18008848681,http://www.adt.com
667373,ADT Security Services,110 Oakbrooke Dr,Mount Washington,40047,+12026002468,(null)
667373,ADT Security Services,11210 Preston Hwy,Louisville,40229,+12026002468,(null)
667373,ADT Security Services,445 Highway 44 E,Shepherdsville,40165,+12026002468,(null)
667373,ADT Security Services,10509 Watterson Trl,Jeffersontown,40299,+15026531827,(null)
667373,First Choice Protection Inc,11838 Capital Way,Jeffersontown,40299,+15022634077,http://1stchoicehomesecuritylouisville.info/
667373,ADT Security Services,10811 Plantside Dr,Jeffersontown,40299,+15022400418,(null)
667373,Protect Your Home - ADT Authorized Premier Provider,11400 Decimal Dr,Jeffersontown,40299,+18669466180,http://www.protectyourhome.com
667373,ADT Security Services,12339 Shelbyville Rd,Middletown,40243,+12026002468,(null)
667373,ADT Security Services,600 N Hurstbourne Pkwy,Louisville,40222,+15024736003,(null)
667371,ADT Security Services, Inc.,1501 W Yamato Rd,Boca Raton,33431,+18008848681,http://www.adt.com
667371,ADT Security Services, Inc.,3880 N 28th Ter,Hollywood,33020,+18008848681,http://www.adt.com
667371,ADT Security Services,2700 NE 36th St,Lighthouse Point,33064,+12026002468,(null)
667371,Devcon Security - ADT,478 SW 12th Ave,Deerfield Beach,33442,+15612087319,http://www.devconsecurity.com
667371,ADT Security Services,2025 E Atlantic Blvd,Pompano Beach,33060,+12026002468,(null)
667371,ADT Security Services,3652 W Hillsboro Blvd,Deerfield Beach,33442,+12026002468,(null)
667371,ADT Security Services,4200 W Sample Rd,Coconut Creek,33073,+12026002468,(null)
667371,Pompano Beach ADT Authorized Security Dealer - Protect Your Home,1000 W McNab Rd,Pompano Beach,33069,+19546337506,(null)
667371,ADT Security Services,5298 W Copans Rd,Margate,33063,+12026002468,(null)
667371,Protect Your Home - ADT Authorized Premier Provider,1507 N State Road 7,Margate,33063,+18669466180,http://www.protectyourhome.com/
667369,ADT Security Services,2601 S Cage Blvd,Pharr,78577,+12026002468,(null)
667365,ADT Security Services, Inc.,280 Utah Ave,South San Francisco,94080,+18008848681,http://www.adt.com
667365,ADT Security Services, Inc.,4511 Willow Rd,Pleasanton,94588,+18008848681,http://www.adt.com
667365,ADT Security Services,40563 Encyclopedia Cir,Fremont,94538,+15103148737,http://www.adt.com
667365,ADT Security Services, Inc.,4128 N Freeway Blvd,Sacramento,95834,+18008848681,http://www.adt.com
667365,ADT Security Services, Inc.,4608 Roseville Rd,North Highlands,95660,+18008848681,http://www.adt.com
667365,ADT,4740 Northgate Blvd,Sacramento,95834,+19166493800,(null)
667365,ADT Security Services,1335 4th St,San Rafael,94901,+12026002468,(null)
667365,ADT Security Services,349 Miller Ave,Mill Valley,94941,+18554670219,(null)
667365,California Security Pro - ADT Authorized Dealer,201 Mission St,San Francisco,94105,+14159677967,http://www.californiasecuritypro.com
667365,ADT Security Services,251 Shoreline Hwy,Tamalpais-Homestead Valley,94941,+18554670219,(null)
667363,ADT Security Services, Inc.,2500 N Lynndale Dr,Grand Chute,54914,+18008848681,http://www.adt.com
667363,ADT Security Services,300 Moasis Dr,Little Chute,54140,+12026002468,(null)
667363,ADT Security Services,231 Welhouse Dr,Kimberly,54136,+19203809233,(null)
667363,ADT Security Services,1010 W Kennedy Ave,Kimberly,54136,+12026002468,(null)
667363,ADT Security Services,200 Lawe St,Kaukauna,54130,+12026002468,(null)
667363,ADT Security Services,110 N Richmond St,Appleton,54911,+12026002468,(null)
667363,ADT Security Services,700 3rd St,Menasha,54952,+12026002468,(null)
667363,ADT Security Services,1101 Main St,Neenah,54956,+12026002468,(null)
667363,ADT Security Services,401 Reid St,De Pere,54115,+12026002468,(null)
667363,ADT Security Services,2770 S Oneida St,Ashwaubenon,54304,+12026002468,(null)
667359,Scotts Valley, CA,(null) (null),Scotts Valley,(null),(null),http://en.wikipedia.org/wiki/Scotts_Valley,_California
667361,ADT Security Services, Inc.,500 Business Center Dr,Robinson Township,15205,+18008848681,http://www.adt.com
667361,ADT Security Services, Inc.,412 Belmont Ave,Youngstown,44502,+18008848681,http://www.adt.com
667361,ADT Security Services, Inc.,5590 Lauby Rd,Green,44720,+18008848681,http://www.adt.com
667361,ADT Security Services, Inc.,9100 Market Pl,Broadview Heights,44147,+18008848681,http://www.adt.com
667361,ADT Security Services, Inc.,9800 Rockside Rd,Valley View,44125,+18008848681,http://www.adt.com
667361,ADT Security Services,15744 Saint Clair Ave,Calcutta,43920,+12026002468,(null)
667361,ADT Security Services,1860 Franklin St,Toronto,43964,+12026002468,(null)
667361,ADT Security Services,1801 County Rd,Weirton,26062,+12026002468,(null)
667361,ADT Security Services,114 Blackhawk Rd,Beaver Falls,15010,+12026002468,(null)
667361,ADT Security Services,530 5th Ave,New Brighton,15066,+12026002468,(null)
667357,ADT,600 E 15th St,Plano,75074,+12147858656,(null)
667357,ADT Security Services, Inc.,1600 Wallace Dr,Carrollton,75006,+18008848681,http://www.adt.com
667357,ADT Security Services, Inc.,7801 Mesquite Bend Dr,Irving,75063,+18008848681,http://www.adt.com
667357,ADT Security Services, Inc.,8880 Esters Blvd,Irving,75063,+12143478776,http://www.adt.com
667357,ADT,4650 Regent Blvd,Irving,75063,+19728713433,(null)
667357,ADT,217 Birch St,Lewisville,75057,+19723182699,(null)
667357,ADT,505 W Peach St,Grapevine,76051,+18172032354,(null)
667357,ADT Security Services, Inc.,5400 Airport Fwy,Haltom City,76117,+18008848681,http://www.adt.com
667357,ADT Security Services, Inc.,2920 SE Loop 820,Fort Worth,76140,+18008848681,http://www.adt.com
667357,ADT,215 Winchester Dr,Tyler,75701,+18669466180,http://www.adt.com
667353,ADT Security Services,123 E Washington St,Kearney,64060,+12026002468,(null)
667353,ADT Security Services,905 Isley Blvd,Excelsior Springs,64024,+12026002468,(null)
667355,ADT Security Services,629 Main St,Arkadelphia,71923,+12026002468,(null)
667355,ADT Security Services,110 N Elm St,Gurdon,71743,+12026002468,(null)
667349,ADT Security Services, Inc.,5910 Rice Creek Pkwy,Shoreview,55126,+18008848681,http://www.adt.com
667349,ADT Security Services,3592 Lexington Ave N,Shoreview,55126,+12026002468,(null)
667349,ADT Security Services,1920 Highway 96 W,Arden Hills,55112,+12026002468,(null)
667349,ADT Security Services,201 County Road E2 W,New Brighton,55112,+12026002468,(null)
667349,ADT Security Services,2640 County Road I,Mounds View,55112,+12026002468,(null)
667343,ADT Security Services, Inc.,212 N Broadway,Portland,37148,+16153235978,http://www.adt.com
667343,ADT Security Services,201 N Broadway,Portland,37148,+12026002468,(null)
667339,ADT Security Services, Inc.,535 Summit Point Dr,Henrietta,14467,+18008848681,http://www.adt.com
667339,ADT Security Services,267 S Main St,Canandaigua,14424,+12026002468,(null)
667339,ADT Security Services,110 E Pearl St,Newark,14513,+12026002468,(null)
667339,ADT Security Services,224 Cross Rd,Geneva,14456,+12026002468,(null)
667339,ADT Security Services,3068 E Henrietta Rd,Rochester,14467,+12026002468,(null)
667339,Protect Your Home - ADT Authorized Premier Provider,333 Metro Park,Brighton,14623,+18669466180,http://www.protectyourhome.com
667339,ADT Security Services,170 Fairfield Dr,Brighton,14620,+12026002468,(null)
667337,ADT Security Services, Inc.,12761 Riverdale Blvd NW,Coon Rapids,55448,+16126435138,http://www.adt.com
667337,ADT Security Services, Inc.,5910 Rice Creek Pkwy,Shoreview,55126,+18008848681,http://www.adt.com
667337,ADT,1441 Iglehart Ave,Saint Paul,55104,+16517050205,http://www.adt.com
667337,ADT Security Services,118 Twin Rivers Ct,Saint Cloud,56377,+12026002468,(null)
667337,ADT Security Services,101 9th Ave N,St Cloud,56303,+12026002468,(null)
667337,ADT Security Services,1435 Division St,Waite Park,56387,+12026002468,(null)
667337,ADT Security Services,281 Jefferson Blvd,Big Lake,55309,+12026002468,(null)
667337,ADT Security Services,9855 Hart Blvd,Monticello,55362,+12026002468,(null)
667337,ADT Security Services,12802 Haven Rd,Little Falls,56345,+12026002468,(null)
667337,ADT Dental,2232 Hennepin Ave,Minneapolis,55405,+16123776108,http://www.adtdental.com
667333,ADT Security Services,1008 Worley Dr,West Plains,65775,+12026002468,(null)
667329,ADT Security Services,320 W State St,O'Fallon,62269,+12026002468,(null)
667329,ADT Security Services,2400 N Illinois St,Swansea,62226,+12026002468,(null)
667331,ADT Security Services, Inc.,5805 Weller Ct SW,Wyoming,49509,+18008848681,http://www.adt.com
667331,ADT Security Services,38 Fulton St W,Grand Rapids,49503,+12026002468,(null)
667331,ADT Security Services,3852 44th St SE,Kentwood,49512,+18002382727,(null)
667331,ADT Security Services,1600 28th St SW,Wyoming,49519,+12026002468,(null)
667331,ADT Security Services,6230 Kalamazoo Ave SE,Grand Rapids,49508,+12026002468,(null)
667331,ADT Security Services,3940 Rivertown Pkwy SW,Grandville,49418,+12026002468,(null)
667331,ADT Security Services,3471 Kelly St,Hudsonville,49426,+12026002468,(null)
667331,ADT Security Services,135 N Bridge St,Belding,48809,+12026002468,(null)
667331,ADT Security Services,204 S Lafayette St,Greenville,48838,+12026002468,(null)
667331,A & D T-Alarm Home Security Monitoring,252 State St SE,Grand Rapids,49503,+16164389119,(null)
667325,ADT Security Services, Inc.,200 N Patrick Blvd,Brookfield city,53045,+18008848681,http://www.adt.com
667325,ADT Security Services, Inc.,2500 N Lynndale Dr,Grand Chute,54914,+18008848681,http://www.adt.com
667325,ADT Security Services, Inc.,4801 Voges Rd,McFarland,53718,+18008848681,http://www.adt.com
667325,ADT Security Services,25 E Main St,Waupun,53963,+12026002468,(null)
667325,ADT Security Services,821 Park Ave,Beaver Dam,53916,+12026002468,(null)
667325,ADT Security Services,96 Halbach Ct,Fond du Lac,54937,+12026002468,(null)
667325,ADT Security Services,101 Eureka St,Ripon,54971,+12026002468,(null)
667325,ADT Security Services,247 Broadway St,Berlin,54923,+12026002468,(null)
667325,ADT Security Services,14 W Irving Ave,Oshkosh,54901,+12026002468,(null)
667325,ADT Security Services,900 W Main St,Watertown,53098,+12026002468,(null)
667309,ADT Security Services,2700 Leechburg Rd,Lower Burrell,15068,+12026002468,(null)
667309,ADT Security Services,929 4th Ave,New Kensington,15068,+12026002468,(null)
667309,ADT Security Services,255 Unity Center Rd,Plum,15239,+12026002468,(null)
667309,ADT Security Services,325 Hulton Rd,Oakmont,15139,+12026002468,(null)
667309,ADT Security Services,1824 Leishman Ave,Arnold,15068,+12026002468,(null)
667307,ADT Security Services,820 W 17Th St,Monroe,53566-2393,+12026002468,(null)
667303,ADT Security Services,1004 High St,Delano,93215,+12026002468,(null)
667301,ADS-ADT AUTHORIZED COMAPNY,344 20th St,Oakland,94612,+17077628420,(null)
667301,ADT Authorized Dealer,2202 Damuth St,Oakland,94602,+15104886808,(null)
667301,ADT Security Services,1800 Madison St,Oakland,94612,+15108582752,(null)
667301,ADT Security Services,4038 Piedmont Ave,Oakland,94611,+15108582742,(null)
667301,Adt Generral Inforrmation,3214 Grand Ave,Oakland,94610,+15108582746,(null)
667301,ADT Security Services,3215 Grand Ave,Oakland,94610,+15108582747,(null)
667301,ADT Security Services,1587 Franklin St,Oakland,94612,+18883991607,(null)
667301,ADT Security Services,1601 Franklin St,Oakland,94612,+18884646934,(null)
667301,Adt Generral Inforrmation,1802 Madison St,Oakland,94612,+15108582754,(null)
667299,ADT Security Services,2343 E Wheeling Ave,Cambridge,43725,+12026002468,(null)
667295,Bedford Heights, OH,(null) (null),Bedford Heights,(null),(null),http://en.wikipedia.org/wiki/Bedford_Heights,_Ohio
667285,Green River, WY,(null) (null),Green River,(null),(null),http://en.wikipedia.org/wiki/Green_River,_Wyoming
667281,ADT Security Services, Inc.,5300 Oakbrook Pkwy,Norcross,30093,+18008848681,http://www.adt.com
667281,ADT Security Services, Inc.,8607 Roberts Dr,Sandy Springs,30350,+18008848681,http://www.adt.com
667281,ADT Security Services, Inc.,30 Marietta St NW,Atlanta,30303,+14049903764,http://www.adt.com
667281,ADT Security Services, Inc.,3355 Breckinridge Blvd,Duluth,30096,+18008848681,http://www.adt.com
667281,ADT Security Services, Inc.,885 Franklin Rd SE,Marietta,30067,+17708724262,http://www.adt.com
667281,ADT Security Services, Inc.,74 Southwoods Pkwy,Atlanta,30354,+18008848681,http://www.adt.com
667281,Atlanta ADT Authorized Security Dealer - Protect Your Home,1920 Dresden Dr NE,North Atlanta,30319,+14046029727,http://www.protectyourhome.com/georgia/atlanta2.as
667281,ADT Security Services,3688 Clearview Ave,Doraville,30340,+18005801342,http://www.protectyourhome.com/georgia/atlanta.aspx?subid=atlantaga&cpao=150&cpca=superpages&kw=atlantaga
667281,Absolute Security,3003 Summit Blvd,North Atlanta,30319,+14044605400,(null)
667281,ADT Security Services,2970 Clairmont Rd NE,Brookhaven,30329,+14044107626,(null)
667277,ADT Security Services,827 Liberty St,Morris,60450,+12026002468,(null)
667275,A D T Importação Comércio Manutenção Montagens de Equipamentos,(null) R Dr Jeber Juabre 145 Jardim Márcia,Campinas,13060-611,(null),(null)
667273,ADT Security Services,88 Clinton St,Delaware City,19720,+12026002468,(null)
667273,ADT Security Services,513 Main St,Odessa,19709,+12026002468,(null)
667273,ADT Security Services,15 E Green St,Middletown,19709,+12026002468,(null)
667273,ADT Security Services,318 Main St,Townsend,19734,+12026002468,(null)
667271,ADT Security Services,1001 N Mulberry St,Berwick,18603,+12026002468,(null)
667263,ADT Security Services, Inc.,452 Sable Blvd,Aurora,80011,+18008848681,http://www.adt.com
667263,Protect Your Home - ADT Authorized Premier Provider,13791 E Rice Pl,Aurora,80015,+18669466180,http://www.protectyourhome.com/
667263,ADT Security Services,306 Edmunds St,Brush,80723,+12026002468,(null)
667263,ADT Security Services,198 Main Ave,Akron,80720,+12026002468,(null)
667263,ADT Security Services,202 N Colorado Ave,Haxtun,80731,+12026002468,(null)
667263,ADT Security Services,307 E Kiowa Ave,Fort Morgan,80701,+12026002468,(null)
667263,ADT Security Services,826 Old Post Rd,Sidney,69162,+12026002468,(null)
667263,ADT Security Services,143 S Interocean Ave,Holyoke,80734,+12026002468,(null)
667263,ADT Security Services,110 E 2nd St,Julesburg,80737,+12026002468,(null)
667263,ADT Security Services,520 Adams St,Wray,80758,+12026002468,(null)
667259,7204 Park West Cir,7204 Park West Cir,Fort Worth,76134,(null),(null)
667257,ADT Security Services,1209 National Ave,Las Vegas,87701,+12026002468,(null)
667251,Adt 27 7 Alarm Monitoring & Home Security,105 N San Gabriel Blvd,San Gabriel,91775,+16262370029,(null)
667253,ADT Security Services, Inc.,9800 Rockside Rd,Valley View,44125,+18008848681,http://www.adt.com
667253,ADT Security Services, Inc.,9100 Market Pl,Broadview Heights,44147,+18008848681,http://www.adt.com
667253,ADT Security Services,760 Richmond Rd,Richmond Heights,44143,+12026002468,(null)
667253,ADT Security Services,24393 Cedar Rd,Lyndhurst,44124,+12026002468,(null)
667253,ADT Security Services,6411 Mayfield Rd,Mayfield Heights,44124,+12026002468,(null)
667253,ADT Security Services,25705 Chagrin Blvd,Beachwood,44122,+12026002468,(null)
667253,ADT Security Services,20121 Van Aken Blvd,Shaker Heights,44122,+12026002468,(null)
667253,ADT Security Services,34750 Chardon Rd,Willoughby Hills,44094,+12026002468,(null)
667253,ADT Security Services,800 E 222nd St,Euclid,44123,+12026002468,(null)
667253,ADT Security Services,29201 Euclid Ave,Wickliffe,44092,+12026002468,(null)
667249,ADT Security Services, Inc.,200 N Patrick Blvd,Brookfield city,53045,+18008848681,http://www.adt.com
667249,Adt Towing & Recovery,2666 Mayfield Way,Richfield,53076,+12622378950,(null)
667249,ADT Security Services,1610 E Washington St,West Bend,53095,+12026002468,(null)
667249,ADT Security Services,805 Cardinal Ln,Hartland,53029,+12026002468,(null)
667249,MIDWEST REFRIGERATED SERVICE INC-SUSSEX ADT ALARM,N62W22617 Village Dr,Sussex,53089-3973,+12628201730,(null)
667249,ADT Security Services,403 E Wisconsin Ave,Oconomowoc,53066,+12026002468,(null)
667249,ADT Security Services,622 Genesee St,Delafield,53018,+12026002468,(null)
667249,ADT Security Services,1299 Washington Ave,Cedarburg,53012,+12026002468,(null)
667249,ADT Security Services,1808 Silvernail Rd,Waukesha,53072,+12026002468,(null)
667249,ADT Security Services,900 W Main St,Watertown,53098,+12026002468,(null)
667245,Coroa S/A D.T.V.M - Em Liquidacao,748 Avenida Afonso Pena,Belo Horizonte,30130,(null),(null)
667247,ADT Security Services, Inc.,15950 Bernardo Center Dr,San Diego,92127,+18008848681,http://www.adt.com
667247,ADT Security Services, Inc.,3830 Calle Fortunada,San Diego,92123,+15852404736,http://www.adt.com
667247,ADT Security Services,1163 S Coast Highway 101,Encinitas,92024,+12026002468,(null)
667247,ADT Security Services,119 Rosebay Dr,Encinitas,92024,+17609427689,(null)
667247,ADT Security Services,5750 Fleet St,Carlsbad,92008,+17605854970,(null)
667247,ADT Security Services,11640 Carmel Mountain Rd,San Diego,92128,+16193562782,(null)
667247,ADT Security Services,16721 Bernardo Center Dr,San Diego,92128,+16193562794,(null)
667247,ADT Security Services,300 Rancheros Dr,San Marcos,92069,+17606215201,(null)
667247,ADT Security Services,250 W Mission Rd,San Marcos,92069,+12026002468,(null)
667247,ADT Security Services,3016 Carlsbad Blvd,Carlsbad,92008,+12026002468,(null)
667241,ADT Security Services, Inc.,13528 Kenton Ave,Crestwood,60445,+18008848681,http://www.adt.com
667241,ADT Security Services,385 Sauk Trl,Park Forest,60466,+12026002468,(null)
667241,Free Adt Home Security!,20 S Orchard Dr,Park Forest,60466,+18555488544,(null)
667241,ADT Security Services,4801 Lincoln Hwy,Matteson,60443,+18554670219,(null)
667241,Protect Your Home - ADT Authorized Premier Provider,19630 Governors Hwy,Flossmoor,60422,+18669466180,http://www.protectyourhome.com
667241,ADT Security Services,1524 Chicago Rd,Chicago Heights,60411,+12026002468,(null)
667241,ADT Security Services,18259 Crawford Ave,Country Club Hills,60478,+12026002468,(null)
667241,ADT Security Services,2124 183rd St,Homewood,60430,+12026002468,(null)
667241,ADT Security Services,17500 Kedzie Ave,Hazel Crest,60429,+12026002468,(null)
667241,ADT Security Services,17900 Dixie Hwy,Homewood,60430,+17087940073,http://www.protectyourhome.com
667235,ADT Security Services, Inc.,9100 Market Pl,Broadview Heights,44147,+18008848681,http://www.adt.com
667235,ADT Security Services,4774 Royalton Rd,Broadview Heights,44141,+12026002468,(null)
667233,ADT Security Services, Inc.,3160 Southgate Commerce Blvd,Orlando,32806,+18008848681,http://www.adt.com
667233,ADT,1620 W Osceola Pkwy,Kissimmee,34741,+14073297541,http://www.new.adt.com/?ecid=DCore2-Trad-060515
667233,Protect Your Home - ADT Authorized Premier Provider,3143 NE 14th St,Ocala,34470,+18669466180,http://www.protectyourhome.com/
667233,ADT Security Services,5711 S Florida Ave,Medulla,33813,+18636673733,(null)
667233,ADT Security Services, Inc.,3205 SW 47th Ave,Gainesville,32608,+18008848681,http://www.adt.com
667233,ADT Security Services, Inc.,5471 W Waters Ave,Town 'n' Country,33634,+18008848681,http://www.adt.com
667233,ADT Security Services, Inc.,4210 Dow Rd,Melbourne,32934,+18008848681,http://www.adt.com
667233,ADT Security Services, Inc.,8222 118th Ave,Largo,33773,+18008848681,http://www.adt.com
667233,ADT Security Services,116 E 5th Ave,Mount Dora,32757,+12026002468,(null)
667233,ADT Security Services,108 E Magnolia Ave,Eustis,32726,+12026002468,(null)
