id,name,address,city,state,zip,phone,url
667401,ADT Security Services,313 Madison Ave,Fort Atkinson,53538,+12026002468,(null)
667401,ADT Security Services,656 S Janesville St,Whitewater,53190,+12026002468,(null)
667397,ADT Security Services,2702 E 2nd St,City of The Dalles,97058,+12026002468,(null)
667397,ADT Security Services,1413 12th St,Hood River,97031,+12026002468,(null)
667399,Adt & T Assessoria Desenvolvimento e Treinamento,284 Rua João Tomé,Fortaleza,60325,(null),(null)
667399,Adt & T Assessoria Desenvolvimento e Treinamento LTDA,170 Rua Padre João Wassen,Fortaleza,60020,+558532674483,(null)
667395,ADT Security Services,14 N Airmont Rd,Airmont,10901,+12026002468,(null)
667395,ADT Security Services,45 Main St,Monsey,10952,+12026002468,(null)
667395,ADT Security Services,146 N Main St,Spring Valley,10977,+12026002468,(null)
667395,ADT Security Services,17 State St,Mahwah,07430,+12026002468,(null)
667391,ADT Security Services, Inc.,245 Bland St,Bluefield,24701,+13049453629,http://www.adt.com
667391,ADT Security Services,102 Roseland Ave,Princeton,24740,+12026002468,(null)
667391,ADT Security Services,2060 Leatherwood Ln,Bluefield,24605,+12026002468,(null)
667391,ADT Security Services,411 Raleigh St,Bluefield,24701,+12026002468,(null)
667385,ADT Security Services,165 Minutemen Cswy,Cocoa Beach,32931,+12026002468,(null)
667387,ADT Security Services,501 S Washington St,Fredericksburg,78624,+12026002468,(null)
667387,ADT Security Services,816 Ranchero Rd,Kerrville,78028,+12026002468,(null)
667383,ADT Security Services,1706 Wisconsin Ave,Grafton,53024,+12026002468,(null)
667383,ADT Security Services,1299 Washington Ave,Cedarburg,53012,+12026002468,(null)
667379,ADT Security Services,24393 Cedar Rd,Lyndhurst,44124,+12026002468,(null)
667379,ADT Security Services,25705 Chagrin Blvd,Beachwood,44122,+12026002468,(null)
667379,ADT Security Services,6411 Mayfield Rd,Mayfield Heights,44124,+12026002468,(null)
667379,ADT Security Services,20121 Van Aken Blvd,Shaker Heights,44122,+12026002468,(null)
667381,ADT Security Services,700 Jennings St,Sioux City,51105,+17122022201,(null)
667381,ADT Security Services,1723 Dakota Ave,South Sioux City,68776,+12026002468,(null)
667373,ADT Security Services,110 Oakbrooke Dr,Mount Washington,40047,+12026002468,(null)
667375,ADT Security Services,370 Central Ave,Lancaster,14086,+12026002468,(null)
667375,ADT Security Services,1199 French Rd,Cheektowaga,14043,+12026002468,(null)
667371,ADT Security Services,2700 NE 36th St,Lighthouse Point,33064,+12026002468,(null)
667369,ADT Security Services,2601 S Cage Blvd,Pharr,78577,+12026002468,(null)
667365,ADT Security Services, Inc.,280 Utah Ave,South San Francisco,94080,+18008848681,http://www.adt.com
667365,ADT Security Services, Inc.,4511 Willow Rd,Pleasanton,94588,+18008848681,http://www.adt.com
667365,ADT Security Services,40563 Encyclopedia Cir,Fremont,94538,+15103148737,http://www.adt.com
667365,ADT Security Services, Inc.,4128 N Freeway Blvd,Sacramento,95834,+18008848681,http://www.adt.com
667365,ADT Security Services, Inc.,4608 Roseville Rd,North Highlands,95660,+18008848681,http://www.adt.com
667365,ADT,4740 Northgate Blvd,Sacramento,95834,+19166493800,(null)
667365,ADT Security Services,1335 4th St,San Rafael,94901,+12026002468,(null)
667365,ADT Security Services,349 Miller Ave,Mill Valley,94941,+18554670219,(null)
667365,California Security Pro - ADT Authorized Dealer,201 Mission St,San Francisco,94105,+14159677967,http://www.californiasecuritypro.com
667365,ADT Security Services,7380 Redwood Blvd,Novato,94945,+12026002468,(null)
667367,ADT Security Services,728 Canton St,Ogdensburg,13669,+12026002468,(null)
667363,ADT Security Services,300 Moasis Dr,Little Chute,54140,+12026002468,(null)
667359,ADT Security Services,40563 Encyclopedia Cir,Fremont,94538,+15103148737,http://www.adt.com
667359,ADT Security Services, Inc.,280 Utah Ave,South San Francisco,94080,+18008848681,http://www.adt.com
667359,ADT Security Services, Inc.,928 E Blanco Rd,Salinas,93901,+18312693261,http://www.adt.com
667359,ADT Security Services, Inc.,4511 Willow Rd,Pleasanton,94588,+18008848681,http://www.adt.com
667359,ADT Security Services, Inc.,4725 Enterprise Way,Salida,95356,+18008848681,http://www.adt.com
667359,ADT Authorized Dealer,10090 Highway 9,Brookdale,95005,+18317091378,(null)
667359,Direct Protection Security - ADT Authorized Dealer,1630 Oakland Rd,San Jose,95131,+14087670090,(null)
667359,ADT Security Services,500 Chestnut St,Santa Cruz,95060,+12026002468,(null)
667359,California Security Pro - ADT Authorized Dealer,2033 Gateway Pl,San Jose,95110,+14089566200,http://www.californiasecuritypro.com/adt-home-security/santa-clara-county/san-jose-ca
667359,Direct Protection Security - ADT Authorized Dealer,1514 Moffett St,Salinas,93905,+14084770217,(null)
667361,ADT Security Services,15744 Saint Clair Ave,Calcutta,43920,+12026002468,(null)
667357,ADT Security Services,12330 Lake June Rd,Balch Springs,75180,+12026002468,(null)
667357,ADT Security Services,210 Hall Rd,Seagoville,75159,+12026002468,(null)
667353,ADT Security Services,123 E Washington St,Kearney,64060,+12026002468,(null)
667353,ADT Security Services,905 Isley Blvd,Excelsior Springs,64024,+12026002468,(null)
667355,ADT Security Services,629 Main St,Arkadelphia,71923,+12026002468,(null)
667355,ADT Security Services,110 N Elm St,Gurdon,71743,+12026002468,(null)
667351,Adt (Aménagement Décoration Techinique),2 Rue Marcel Delommez,Landas,59310,+33608251147,http://www.adt-bains.com
667351,ADT (Aménagement Décoration Technique),15 Rue du Rieu,Château-l'Abbaye,59230,+33327409649,http://www.adt-bains.fr
667351,Sage France,16 Rue Papin,Villeneuve d'Ascq,59650,+33320439650,(null)
667351,ADT Diag,233–492 Rue du Général Charles Delestraint,Lambres-lez-Douai,59552,+33327902395,http://www.adtdiag.fr
667351,Aide A Domicile Pour Tous (A.D.T),29 Rue Léon Gambetta,Faches-Thumesnil,59155,+33320745456,(null)
667351,Adrem Ducloy Transmissions,5 Rue de Luyot,Seclin,59113,+33328552535,(null)
667349,ADT Security Services, Inc.,5910 Rice Creek Pkwy,Shoreview,55126,+18008848681,http://www.adt.com
667349,ADT Security Services,3592 Lexington Ave N,Shoreview,55126,+12026002468,(null)
667349,ADT Security Services,1920 Highway 96 W,Arden Hills,55112,+12026002468,(null)
667349,ADT Security Services,201 County Road E2 W,New Brighton,55112,+12026002468,(null)
667349,ADT Security Services,2640 County Road I,Mounds View,55112,+12026002468,(null)
667345,ADT Security Services,1734 Brevard Rd,Laurel Park,28791,+12026002468,(null)
667345,Adt Authorized Company - Best Home Security,34 Rosscraggon Rd,Asheville,28803,+18283334398,http://www.besthomesecurity.com
667343,ADT Security Services, Inc.,212 N Broadway,Portland,37148,+16153235978,http://www.adt.com
667343,ADT Security Services,201 N Broadway,Portland,37148,+12026002468,(null)
667343,ADT Security Services,370 Hester Dr,White House,37188,+12026002468,(null)
667341,ADT Security Services,2606 N Longview St,Kilgore,75662,+12026002468,(null)
667341,A & D T-Activation & New Sales,115 E Tyler St,Longview,75601,+19033310099,(null)
667339,ADT Security Services,267 S Main St,Canandaigua,14424,+12026002468,(null)
667335,ADT Security Services, Inc.,7399 Boston Blvd,Newington,22153,+18008848681,http://www.adt.com
667335,ADT Security Services, Inc.,14434 Albemarle Point Pl,Chantilly,20151,+18008848681,http://www.adt.com
667335,ADT Security Services, Inc.,45662 Terminal Dr,Sterling,20166,+18008848681,http://www.adt.com
667335,ADT Security Services, Inc.,12741 Darby Brook Ct,Woodbridge,22192,+13017684060,http://www.adt.com
667335,ADT Security Services, Inc.,4485 Nicole Dr,Mitchellville,20706,+18008848681,http://www.adt.com
667335,ADT Security Services, Inc.,4200 Forbes Blvd,Mitchellville,20706,+18008848681,http://www.adt.com
667335,ADT Security Services,3403 Holly Rd,Annandale,22003,+12026002468,(null)
667335,ADT Security Services,6720 Old Dominion Dr,McLean,22101,+12026002468,(null)
667335,ADT Security Services,8411 Leesburg Pike,Tysons Corner,22182,+12026002468,(null)
667335,ADT Security Services,226 Maple Ave W,Vienna,22180,+17033490715,(null)
667337,ADT Security Services,118 Twin Rivers Ct,Saint Cloud,56377,+12026002468,(null)
667337,ADT Security Services,101 9th Ave N,St Cloud,56303,+12026002468,(null)
667333,ADT Security Services,1008 Worley Dr,West Plains,65775,+12026002468,(null)
667329,ADT Security Services,320 W State St,O'Fallon,62269,+12026002468,(null)
667329,ADT Security Services,2400 N Illinois St,Swansea,62226,+12026002468,(null)
667331,ADT Security Services, Inc.,5805 Weller Ct SW,Wyoming,49509,+18008848681,http://www.adt.com
667331,ADT Security Services,38 Fulton St W,Grand Rapids,49503,+12026002468,(null)
667331,ADT Security Services,3852 44th St SE,Kentwood,49512,+18002382727,(null)
667331,ADT Security Services,1600 28th St SW,Wyoming,49519,+12026002468,(null)
667331,ADT Security Services,6230 Kalamazoo Ave SE,Grand Rapids,49508,+12026002468,(null)
667331,ADT Security Services,3940 Rivertown Pkwy SW,Grandville,49418,+12026002468,(null)
667331,ADT Security Services,3471 Kelly St,Hudsonville,49426,+12026002468,(null)
667331,ADT Security Services,135 N Bridge St,Belding,48809,+12026002468,(null)
667331,ADT Security Services,204 S Lafayette St,Greenville,48838,+12026002468,(null)
667331,A & D T-Alarm Home Security Monitoring,252 State St SE,Grand Rapids,49503,+16164389119,(null)
667327,ADT Security Services,325 W Main St,Mount Joy,17552,+12026002468,(null)
667327,ADT Security Services,9 E Main St,Middletown,17057,+12026002468,(null)
667327,ADT Security Services,81 Hershey Rd,Elizabethtown,17022,+12026002468,(null)
667323,ADT Security Services,223 W Grand Ave,Port Washington,53074,+12026002468,(null)
667325,ADT Security Services,25 E Main St,Waupun,53963,+12026002468,(null)
667321,Adt Viagens e Turismo,360 Rua São José,Santa Maria,97010,(null),(null)
667317,ADT Security Services,215 W Pennsylvania Ave,Bessemer City,28016,+12026002468,(null)
667317,ADT Security Services,1320 Shelby Rd,Kings Mountain,28086,+12026002468,(null)
667315,ADT Security Services,769 Central Ave,Dunkirk,14048,+12026002468,(null)
667315,ADT Security Services,10419 Bennett Rd,Fredonia,14063,+12026002468,(null)
667311,ADT Security Services,601 S 5th Ave,Maywood,60153,+12026002468,(null)
667313,ADT Security Services,13702 Highway 6,Santa Fe,77517,+12026002468,(null)
667309,ADT Security Services,2700 Leechburg Rd,Lower Burrell,15068,+12026002468,(null)
667309,ADT Security Services,929 4th Ave,New Kensington,15068,+12026002468,(null)
667309,ADT Security Services,255 Unity Center Rd,Plum,15239,+12026002468,(null)
667309,ADT Security Services,325 Hulton Rd,Oakmont,15139,+12026002468,(null)
667309,ADT Security Services,1824 Leishman Ave,Arnold,15068,+12026002468,(null)
667307,ADT Security Services,820 W 17Th St,Monroe,53566-2393,+12026002468,(null)
667303,ADT Security Services,1004 High St,Delano,93215,+12026002468,(null)
667301,ADS-ADT AUTHORIZED COMAPNY,344 20th St,Oakland,94612,+17077628420,(null)
667301,ADT Authorized Dealer,2202 Damuth St,Oakland,94602,+15104886808,(null)
667301,ADT Security Services,1800 Madison St,Oakland,94612,+15108582752,(null)
667301,ADT Security Services,4038 Piedmont Ave,Oakland,94611,+15108582742,(null)
667301,Adt Generral Inforrmation,3214 Grand Ave,Oakland,94610,+15108582746,(null)
667301,ADT Security Services,3215 Grand Ave,Oakland,94610,+15108582747,(null)
667301,ADT Security Services,1587 Franklin St,Oakland,94612,+18883991607,(null)
667301,ADT Security Services,1601 Franklin St,Oakland,94612,+18884646934,(null)
667301,Adt Generral Inforrmation,1802 Madison St,Oakland,94612,+15108582754,(null)
667299,ADT Security Services,2343 E Wheeling Ave,Cambridge,43725,+12026002468,(null)
667295,ADT Security Services,5354 Lee Rd,Maple Heights,44137,+12026002468,(null)
667295,ADT Security Services,5544 Turney Rd,Garfield Heights,44125,+12026002468,(null)
667295,ADT Security Services,26050 Richmond Rd,Bedford Heights,44146,+12026002468,(null)
667295,ADT Security Services,25500 Miles Rd,Warrensville Heights,44128,+12026002468,(null)
667297,ADT Security Services,105 Jacqulyn St,Abbeville,70510,+12026002468,(null)
667293,ADT Security Services, Inc.,1817 W Braker Ln,Austin,78758,+18008848681,http://www.adt.com
667293,Central Security,1109 Pigeon Forge Dr,Pflugerville,78660,+15126102698,https://www.getsecurityalarm.com
667293,ADT Security Services,4159 Steck Ave,Austin,78759,+15122792790,(null)
667293,ADT Security Services,430 N Bell Blvd,Cedar Park,78613,+12026002468,(null)
667293,ADT Security Services,8222 Bent Tree Rd,Austin,78759,+15122790900,(null)
667293,ADT Security Services,5805 N Lamar Blvd,Austin,78752,+18662470121,http://www.adt.com
667293,Austin ADT Authorized Security Dealer - Protect Your Home,9415 Burnet Rd,Austin,78758,+15124028152,http://www.protectyourhome.com/texas/austin2.aspx?
667293,Protect Your Home - ADT Authorized Premier Provider,1033 La Posada Dr,Austin,78752,+18669466180,http://www.protectyourhome.com
667293,ADT Security Services,3700 W Parmer Ln,Austin,78727,+15126237152,(null)
667293,ADT Security Services,107 E 5th St,Austin,78701,+12026002468,(null)
667289,ADT Security Services,700 Jennings St,Sioux City,51105,+17122022201,(null)
667289,ADT Security Services,1723 Dakota Ave,South Sioux City,68776,+12026002468,(null)
667289,ADT Security Services,128 Central Ave NE,Le Mars,51031,+12026002468,(null)
667289,ADT Security Services,208 Douglas St,Wayne,68787,+12026002468,(null)
667289,ADT Security Services,2595 Ridge Rd,Sioux Center,51250,+12026002468,(null)
667289,ADT Security Services,712 Lincoln Ave SE,Orange City,51041,+12026002468,(null)
667289,ADT Security Services,609 W Norfolk Ave,Norfolk,68701,+12026002468,(null)
667289,ADT Security Services,115 S 2nd St,Cherokee,51012,+12026002468,(null)
667289,ADT Security Services,1710 N Humiston Ave,Worthington,56187,+12026002468,(null)
667291,ADT Security Services,875 S Odell Ave,Marshall,65340,+12026002468,(null)
667287,ADT Security Services,103 E 22nd Ave,Munhall,15120,+12026002468,(null)
667281,Atlanta ADT Authorized Security Dealer - Protect Your Home,1920 Dresden Dr NE,North Atlanta,30319,+14046029727,http://www.protectyourhome.com/georgia/atlanta2.as
667281,ADT Security Services,3688 Clearview Ave,Doraville,30340,+18005801342,http://www.protectyourhome.com/georgia/atlanta.aspx?subid=atlantaga&cpao=150&cpca=superpages&kw=atlantaga
667277,ADT Security Services,827 Liberty St,Morris,60450,+12026002468,(null)
667279,ADT Security Services,622 Bayshore Dr,Niceville,32578,+12026002468,(null)
667279,ADT Security Services,361 Chicago Ave,Valparaiso,32580,+12026002468,(null)
667275,A D T Importação Comércio Manutenção Montagens de Equipamentos,(null) R Dr Jeber Juabre 145 Jardim Márcia,Campinas,13060-611,(null),(null)
667273,ADT Security Services,88 Clinton St,Delaware City,19720,+12026002468,(null)
667273,ADT Security Services,513 Main St,Odessa,19709,+12026002468,(null)
667273,ADT Security Services,15 E Green St,Middletown,19709,+12026002468,(null)
667273,ADT Security Services,318 Main St,Townsend,19734,+12026002468,(null)
667271,ADT Security Services,1001 N Mulberry St,Berwick,18603,+12026002468,(null)
667267,ADT Security Services,7880 Remington Rd,Montgomery,45242,+12026002468,(null)
667267,ADT Security Services,9215 Plainfield Rd,Blue Ash,45236,+12026002468,(null)
667267,ADT Security Services,4079 E Galbraith Rd,Deer Park,45236,+12026002468,(null)
667269,ADT Security Services,119 N McKenzie St,Foley,36535,+12026002468,(null)
667269,ADT Security Services,26029 Canal Rd,Orange Beach,36561,+12026002468,(null)
667269,ADT Security Services,421 S Alston St,Foley,36535,+12519437040,http://www.411adts.com
667265,ADT Security Services,827 Liberty St,Morris,60450,+12026002468,(null)
667263,ADT Security Services, Inc.,452 Sable Blvd,Aurora,80011,+18008848681,http://www.adt.com
667263,Protect Your Home - ADT Authorized Premier Provider,13791 E Rice Pl,Aurora,80015,+18669466180,http://www.protectyourhome.com/
667263,ADT Security Services,306 Edmunds St,Brush,80723,+12026002468,(null)
667263,ADT Security Services,198 Main Ave,Akron,80720,+12026002468,(null)
667263,ADT Security Services,202 N Colorado Ave,Haxtun,80731,+12026002468,(null)
667263,ADT Security Services,307 E Kiowa Ave,Fort Morgan,80701,+12026002468,(null)
667263,ADT Security Services,826 Old Post Rd,Sidney,69162,+12026002468,(null)
667263,ADT Security Services,143 S Interocean Ave,Holyoke,80734,+12026002468,(null)
667263,ADT Security Services,110 E 2nd St,Julesburg,80737,+12026002468,(null)
667263,ADT Security Services,520 Adams St,Wray,80758,+12026002468,(null)
667257,ADT Security Services,1209 National Ave,Las Vegas,87701,+12026002468,(null)
667251,Adt 27 7 Alarm Monitoring & Home Security,105 N San Gabriel Blvd,San Gabriel,91775,+16262370029,(null)
667253,ADT Security Services,24393 Cedar Rd,Lyndhurst,44124,+12026002468,(null)
667253,ADT Security Services,25705 Chagrin Blvd,Beachwood,44122,+12026002468,(null)
667253,ADT Security Services,6411 Mayfield Rd,Mayfield Heights,44124,+12026002468,(null)
667253,ADT Security Services,760 Richmond Rd,Richmond Heights,44143,+12026002468,(null)
667249,ADT Security Services, Inc.,200 N Patrick Blvd,Brookfield city,53045,+18008848681,http://www.adt.com
667249,Adt Towing & Recovery,2666 Mayfield Way,Richfield,53076,+12622378950,(null)
667249,ADT Security Services,1610 E Washington St,West Bend,53095,+12026002468,(null)
667249,ADT Security Services,805 Cardinal Ln,Hartland,53029,+12026002468,(null)
667249,MIDWEST REFRIGERATED SERVICE INC-SUSSEX ADT ALARM,N62W22617 Village Dr,Sussex,53089-3973,+12628201730,(null)
667249,ADT Security Services,403 E Wisconsin Ave,Oconomowoc,53066,+12026002468,(null)
667249,ADT Security Services,622 Genesee St,Delafield,53018,+12026002468,(null)
667249,ADT Security Services,1299 Washington Ave,Cedarburg,53012,+12026002468,(null)
667249,ADT Security Services,1808 Silvernail Rd,Waukesha,53072,+12026002468,(null)
667249,ADT Security Services,900 W Main St,Watertown,53098,+12026002468,(null)
667245,Coroa S/A D.T.V.M - Em Liquidacao,748 Avenida Afonso Pena,Belo Horizonte,30130,(null),(null)
667247,ADT Security Services, Inc.,15950 Bernardo Center Dr,San Diego,92127,+18008848681,http://www.adt.com
667247,ADT Security Services, Inc.,3830 Calle Fortunada,San Diego,92123,+15852404736,http://www.adt.com
667247,ADT Security Services,1163 S Coast Highway 101,Encinitas,92024,+12026002468,(null)
667247,ADT Security Services,119 Rosebay Dr,Encinitas,92024,+17609427689,(null)
667247,ADT Security Services,5750 Fleet St,Carlsbad,92008,+17605854970,(null)
667247,ADT Security Services,11640 Carmel Mountain Rd,San Diego,92128,+16193562782,(null)
667247,ADT Security Services,16721 Bernardo Center Dr,San Diego,92128,+16193562794,(null)
667247,ADT Security Services,300 Rancheros Dr,San Marcos,92069,+17606215201,(null)
667247,ADT Security Services,250 W Mission Rd,San Marcos,92069,+12026002468,(null)
667247,ADT Security Services,3016 Carlsbad Blvd,Carlsbad,92008,+12026002468,(null)
667241,ADT Security Services,385 Sauk Trl,Park Forest,60466,+12026002468,(null)
667237,ADT Security Services,2227 S Princeton St,Ottawa,66067,+12026002468,(null)
667239,ADT Security Services,1056 1st St NW,Childersburg,35044,+12026002468,(null)
667239,ADT Security Services,100 E 3rd St,Sylacauga,35150,+12026002468,(null)
667235,ADT Security Services, Inc.,9100 Market Pl,Broadview Heights,44147,+18008848681,http://www.adt.com
667235,ADT Security Services,4774 Royalton Rd,Broadview Heights,44141,+12026002468,(null)
667233,ADT Security Services,28 W Plant St,Winter Garden,34787,+12026002468,(null)
667233,ADT Security Services,108 E Magnolia Ave,Eustis,32726,+12026002468,(null)
667233,ADT Security Services,116 E 5th Ave,Mount Dora,32757,+12026002468,(null)
667229,ADT Security Services,6410 Shallowford Rd,Lewisville,27023,+12026002468,(null)
667229,ADT Security Services,6235 Towncenter Dr,Clemmons,27012,+12026002468,(null)
667231,ADT Security Services,8016 W Main St,Rathdrum,83858,+12026002468,(null)
667231,ADT Security Services,251 W Miles Ave,Hayden,83835,+12026002468,(null)
667231,ADT Security Services,503 E Sherman Ave,Coeur d'Alene,83814,+12026002468,(null)
